OBJECT_NAME,OBJECT_ID,EPOCH,MEAN_MOTION,ECCENTRICITY,INCLINATION,RA_OF_ASC_NODE,ARG_OF_PERICENTER,MEAN_ANOMALY,EPHEMERIS_TYPE,CLASSIFICATION_TYPE,NORAD_CAT_ID,ELEMENT_SET_NO,REV_AT_EPOCH,BSTAR,MEAN_MOTION_DOT,MEAN_MOTION_DDOT
SPACEMOBILE-004,2024-163E,2026-07-04T09:12:44.398944,15.20796566,.00076983,52.9655,229.8431,188.3855,171.7012,0,U,61049,999,10038,.77373269E-3,.16997E-3,0
CZ-8A R/B,2025-231K,2026-07-04T15:50:55.661280,14.30160215,.01164968,50.0053,324.9779,285.5204,73.2874,0,U,66004,999,3744,.7716237E-4,.53E-6,0
SZ-21 MODULE,2025-246C,2026-07-04T18:08:40.265376,15.77975221,.00056959,41.4708,197.7814,142.9680,217.1559,0,U,66515,999,3651,.44508681E-3,.78338E-3,0
SPACEMOBILE-006,2025-309A,2026-07-04T11:36:29.751552,15.18634601,.00107329,52.9967,252.4055,180.2768,179.8221,0,U,67232,999,2922,.12763784E-3,.2357E-4,0
SPACEMOBILE-008,2026-139A,2026-07-04T17:08:48.746112,15.12791748,.00045247,52.9937,182.9913,30.7635,329.3620,0,U,69589,999,263,.48634461E-4,.562E-5,0
SPACEMOBILE-009,2026-139B,2026-07-04T17:10:34.406400,15.12685063,.00047301,52.9927,182.9947,25.7318,334.3907,0,U,69590,999,263,.49599642E-4,.577E-5,0
SPACEMOBILE-010,2026-139C,2026-07-04T17:13:22.299744,15.12516241,.00046085,52.9932,183.0091,16.6014,343.5127,0,U,69591,999,264,.5206536E-4,.617E-5,0
