SPACEMOBILE-004         
1 61049U 24163E   26185.38384721  .00016997  00000+0  77373-3 0  9995
2 61049  52.9655 229.8431 0007698 188.3855 171.7012 15.20796566100389
CZ-8A R/B               
1 66004U 25231K   26185.66036645  .00000053  00000+0  77162-4 0  9991
2 66004  50.0053 324.9779 0116496 285.5204  73.2874 14.30160215 37447
SZ-21 MODULE            
1 66515U 25246C   26185.75602159  .00078338  00000+0  44509-3 0  9992
2 66515  41.4708 197.7814 0005695 142.9680 217.1559 15.77975221 36512
SPACEMOBILE-006         
1 67232U 25309A   26185.48367768  .00002357  00000+0  12764-3 0  9999
2 67232  52.9967 252.4055 0010732 180.2768 179.8221 15.18634601 29228
SPACEMOBILE-008         
1 69589U 26139A   26185.71445308  .00000562  00000+0  48634-4 0  9993
2 69589  52.9937 182.9913 0004524  30.7635 329.3620 15.12791748  2637
SPACEMOBILE-009         
1 69590U 26139B   26185.71567600  .00000577  00000+0  49600-4 0  9995
2 69590  52.9927 182.9947 0004730  25.7318 334.3907 15.12685063  2632
SPACEMOBILE-010         
1 69591U 26139C   26185.71761921  .00000617  00000+0  52065-4 0  9992
2 69591  52.9932 183.0091 0004608  16.6014 343.5127 15.12516241  2645
